STARLINK-32202          
1 60595U 24150N   25209.88928935 -.00000632  00000+0 -92189-5 0  9993
2 60595  53.1596 266.7628 0001338  91.0572 269.0582 15.30192722 53778
STARLINK-31930          
1 60596U 24150P   25210.44019144  .00004568  00000+0  16629-3 0  9994
2 60596  53.1594 263.8012 0001232  66.8961 293.2170 15.30193738 53700
STARLINK-32162          
1 60597U 24150Q   25210.42448557  .00001093  00000+0  49059-4 0  9991
2 60597  53.1595 264.4146 0001324  88.0940 272.0213 15.30186219 53857
STARLINK-32208          
1 60598U 24150R   25209.44791543 -.00001023  00000+0 -22444-4 0  9992
2 60598  53.1594 268.9867 0001063  71.4465 288.6651 15.30186158 53709
STARLINK-32165          
1 60599U 24150S   25209.43841864 -.00000058  00000+0  10164-4 0  9996
2 60599  53.1593 268.9268 0001178  76.6601 283.4531 15.30191417 53704
STARLINK-31923          
1 60600U 24150T   25210.47290093  .00000286  00000+0  21774-4 0  9998
2 60600  53.1587 264.0062 0001196  87.0739 273.0398 15.30188178 53860
STARLINK-31988          
1 60601U 24150U   25209.87873765  .00000180  00000+0  18202-4 0  9999
2 60601  53.1596 266.6949 0001352  89.0887 271.0268 15.30191805 53655
STARLINK-31983          
1 60602U 24150V   25210.19264334  .00000405  00000+0  25816-4 0  9992
2 60602  53.1597 265.0954 0001264  98.3922 261.7222 15.30194998 53709
STARLINK-31874          
1 60603U 24150W   25209.87240551  .00000217  00000+0  19442-4 0  9990
2 60603  53.1590 266.6565 0001155  86.2823 273.8310 15.30192494 53771
STARLINK-32039          
1 60604U 24150X   25209.47060679  .00000991  00000+0  45585-4 0  9994
2 60604  53.1595 271.2573 0000928  55.3259 304.7829 15.30184470 53678
STARLINK-11247 [DTC]    
1 60720U 24152A   25210.10133806 -.00000427  00000+0  13281-5 0  9994
2 60720  53.1585 138.7909 0000943  80.0805 280.0320 15.69718981 53725
STARLINK-11259 [DTC]    
1 60721U 24152B   25210.09643296  .00000519  00000+0  91384-5 0  9993
2 60721  53.1588 138.7587 0001100  97.3443 262.7700 15.69713840 53577
STARLINK-11188 [DTC]    
1 60722U 24152C   25210.21886214  .00000076  00000+0  54816-5 0  9994
2 60722  53.1581 138.0968 0001047  94.0058 266.1079 15.69722570 53851
STARLINK-11272 [DTC]    
1 60723U 24152D   25210.52739520  .00000087  00000+0  55683-5 0  9991
2 60723  53.1592 136.4606 0000965  93.3981 266.7147 15.69728876 53802
STARLINK-11261 [DTC]    
1 60724U 24152E   25210.08661746  .00001503  00000+0  17254-4 0  9992
2 60724  53.1590 138.6897 0001105  88.5969 271.5176 15.69725428 53723
STARLINK-11263 [DTC]    
1 60725U 24152F   25210.07681327 -.00000170  00000+0  34599-5 0  9991
2 60725  53.1597 138.6265 0001221  70.9422 289.1728 15.69713231 53736
STARLINK-11235 [DTC]    
1 60726U 24152G   25210.07190703 -.00001539  00000+0 -78477-5 0  9999
2 60726  53.1575 138.5928 0000919  76.6258 283.4862 15.69719599 53842
