[{"OBJECT_NAME":"STARLINK-32202","OBJECT_ID":"2024-150N","EPOCH":"2025-07-28T21:20:34.599840","MEAN_MOTION":15.30192722,"ECCENTRICITY":0.0001338,"INCLINATION":53.1596,"RA_OF_ASC_NODE":266.7628,"ARG_OF_PERICENTER":91.0572,"MEAN_ANOMALY":269.0582,"EPHEMERIS_TYPE":0,"CLASSIFICATION_TYPE":"U","NORAD_CAT_ID":60595,"ELEMENT_SET_NO":999,"REV_AT_EPOCH":5377,"BSTAR":-9.2189e-6,"MEAN_MOTION_DOT":-6.32e-6,"MEAN_MOTION_DDOT":0},{"OBJECT_NAME":"STARLINK-31930","OBJECT_ID":"2024-150P","EPOCH":"2025-07-29T10:33:52.540416","MEAN_MOTION":15.30193738,"ECCENTRICITY":0.0001232,"INCLINATION":53.1594,"RA_OF_ASC_NODE":263.8012,"ARG_OF_PERICENTER":66.8961,"MEAN_ANOMALY":293.217,"EPHEMERIS_TYPE":0,"CLASSIFICATION_TYPE":"U","NORAD_CAT_ID":60596,"ELEMENT_SET_NO":999,"REV_AT_EPOCH":5370,"BSTAR":0.00016629,"MEAN_MOTION_DOT":4.568e-5,"MEAN_MOTION_DDOT":0},{"OBJECT_NAME":"STARLINK-32162","OBJECT_ID":"2024-150Q","EPOCH":"2025-07-29T10:11:15.553248","MEAN_MOTION":15.30186219,"ECCENTRICITY":0.0001324,"INCLINATION":53.1595,"RA_OF_ASC_NODE":264.4146,"ARG_OF_PERICENTER":88.094,"MEAN_ANOMALY":272.0213,"EPHEMERIS_TYPE":0,"CLASSIFICATION_TYPE":"U","NORAD_CAT_ID":60597,"ELEMENT_SET_NO":999,"REV_AT_EPOCH":5385,"BSTAR":4.9059e-5,"MEAN_MOTION_DOT":1.093e-5,"MEAN_MOTION_DDOT":0},{"OBJECT_NAME":"STARLINK-32208","OBJECT_ID":"2024-150R","EPOCH":"2025-07-28T10:44:59.893152","MEAN_MOTION":15.30186158,"ECCENTRICITY":0.0001063,"INCLINATION":53.1594,"RA_OF_ASC_NODE":268.9867,"ARG_OF_PERICENTER":71.4465,"MEAN_ANOMALY":288.6651,"EPHEMERIS_TYPE":0,"CLASSIFICATION_TYPE":"U","NORAD_CAT_ID":60598,"ELEMENT_SET_NO":999,"REV_AT_EPOCH":5370,"BSTAR":-2.2444e-5,"MEAN_MOTION_DOT":-1.023e-5,"MEAN_MOTION_DDOT":0},{"OBJECT_NAME":"STARLINK-32165","OBJECT_ID":"2024-150S","EPOCH":"2025-07-28T10:31:19.370496","MEAN_MOTION":15.30191417,"ECCENTRICITY":0.0001178,"INCLINATION":53.1593,"RA_OF_ASC_NODE":268.9268,"ARG_OF_PERICENTER":76.6601,"MEAN_ANOMALY":283.4531,"EPHEMERIS_TYPE":0,"CLASSIFICATION_TYPE":"U","NORAD_CAT_ID":60599,"ELEMENT_SET_NO":999,"REV_AT_EPOCH":5370,"BSTAR":1.0164e-5,"MEAN_MOTION_DOT":-5.8e-7,"MEAN_MOTION_DDOT":0},{"OBJECT_NAME":"STARLINK-31923","OBJECT_ID":"2024-150T","EPOCH":"2025-07-29T11:20:58.640352","MEAN_MOTION":15.30188178,"ECCENTRICITY":0.0001196,"INCLINATION":53.1587,"RA_OF_ASC_NODE":264.0062,"ARG_OF_PERICENTER":87.0739,"MEAN_ANOMALY":273.0398,"EPHEMERIS_TYPE":0,"CLASSIFICATION_TYPE":"U","NORAD_CAT_ID":60600,"ELEMENT_SET_NO":999,"REV_AT_EPOCH":5386,"BSTAR":2.1774e-5,"MEAN_MOTION_DOT":2.86e-6,"MEAN_MOTION_DDOT":0},{"OBJECT_NAME":"STARLINK-31988","OBJECT_ID":"2024-150U","EPOCH":"2025-07-28T21:05:22.932960","MEAN_MOTION":15.30191805,"ECCENTRICITY":0.0001352,"INCLINATION":53.1596,"RA_OF_ASC_NODE":266.6949,"ARG_OF_PERICENTER":89.0887,"MEAN_ANOMALY":271.0268,"EPHEMERIS_TYPE":0,"CLASSIFICATION_TYPE":"U","NORAD_CAT_ID":60601,"ELEMENT_SET_NO":999,"REV_AT_EPOCH":5365,"BSTAR":1.8202e-5,"MEAN_MOTION_DOT":1.8e-6,"MEAN_MOTION_DDOT":0},{"OBJECT_NAME":"STARLINK-31983","OBJECT_ID":"2024-150V","EPOCH":"2025-07-29T04:37:24.384576","MEAN_MOTION":15.30194998,"ECCENTRICITY":0.0001264,"INCLINATION":53.1597,"RA_OF_ASC_NODE":265.0954,"ARG_OF_PERICENTER":98.3922,"MEAN_ANOMALY":261.7222,"EPHEMERIS_TYPE":0,"CLASSIFICATION_TYPE":"U","NORAD_CAT_ID":60602,"ELEMENT_SET_NO":999,"REV_AT_EPOCH":5370,"BSTAR":2.5816e-5,"MEAN_MOTION_DOT":4.05e-6,"MEAN_MOTION_DDOT":0},{"OBJECT_NAME":"STARLINK-31874","OBJECT_ID":"2024-150W","EPOCH":"2025-07-28T20:56:15.836064","MEAN_MOTION":15.30192494,"ECCENTRICITY":0.0001155,"INCLINATION":53.159,"RA_OF_ASC_NODE":266.6565,"ARG_OF_PERICENTER":86.2823,"MEAN_ANOMALY":273.831,"EPHEMERIS_TYPE":0,"CLASSIFICATION_TYPE":"U","NORAD_CAT_ID":60603,"ELEMENT_SET_NO":999,"REV_AT_EPOCH":5377,"BSTAR":1.9442e-5,"MEAN_MOTION_DOT":2.17e-6,"MEAN_MOTION_DDOT":0},{"OBJECT_NAME":"STARLINK-32039","OBJECT_ID":"2024-150X","EPOCH":"2025-07-28T11:17:40.426656","MEAN_MOTION":15.3018447,"ECCENTRICITY":9.28e-5,"INCLINATION":53.1595,"RA_OF_ASC_NODE":271.2573,"ARG_OF_PERICENTER":55.3259,"MEAN_ANOMALY":304.7829,"EPHEMERIS_TYPE":0,"CLASSIFICATION_TYPE":"U","NORAD_CAT_ID":60604,"ELEMENT_SET_NO":999,"REV_AT_EPOCH":5367,"BSTAR":4.5585e-5,"MEAN_MOTION_DOT":9.91e-6,"MEAN_MOTION_DDOT":0},{"OBJECT_NAME":"STARLINK-11247 [DTC]","OBJECT_ID":"2024-152A","EPOCH":"2025-07-29T02:25:55.608384","MEAN_MOTION":15.69718981,"ECCENTRICITY":9.43e-5,"INCLINATION":53.1585,"RA_OF_ASC_NODE":138.7909,"ARG_OF_PERICENTER":80.0805,"MEAN_ANOMALY":280.032,"EPHEMERIS_TYPE":0,"CLASSIFICATION_TYPE":"U","NORAD_CAT_ID":60720,"ELEMENT_SET_NO":999,"REV_AT_EPOCH":5372,"BSTAR":1.3281e-6,"MEAN_MOTION_DOT":-4.27e-6,"MEAN_MOTION_DDOT":0},{"OBJECT_NAME":"STARLINK-11259 [DTC]","OBJECT_ID":"2024-152B","EPOCH":"2025-07-29T02:18:51.807744","MEAN_MOTION":15.6971384,"ECCENTRICITY":0.00011,"INCLINATION":53.1588,"RA_OF_ASC_NODE":138.7587,"ARG_OF_PERICENTER":97.3443,"MEAN_ANOMALY":262.77,"EPHEMERIS_TYPE":0,"CLASSIFICATION_TYPE":"U","NORAD_CAT_ID":60721,"ELEMENT_SET_NO":999,"REV_AT_EPOCH":5357,"BSTAR":9.1384e-6,"MEAN_MOTION_DOT":5.19e-6,"MEAN_MOTION_DDOT":0},{"OBJECT_NAME":"STARLINK-11188 [DTC]","OBJECT_ID":"2024-152C","EPOCH":"2025-07-29T05:15:09.688896","MEAN_MOTION":15.6972257,"ECCENTRICITY":0.0001047,"INCLINATION":53.1581,"RA_OF_ASC_NODE":138.0968,"ARG_OF_PERICENTER":94.0058,"MEAN_ANOMALY":266.1079,"EPHEMERIS_TYPE":0,"CLASSIFICATION_TYPE":"U","NORAD_CAT_ID":60722,"ELEMENT_SET_NO":999,"REV_AT_EPOCH":5385,"BSTAR":5.4816e-6,"MEAN_MOTION_DOT":7.6e-7,"MEAN_MOTION_DDOT":0},{"OBJECT_NAME":"STARLINK-11272 [DTC]","OBJECT_ID":"2024-152D","EPOCH":"2025-07-29T12:39:26.945280","MEAN_MOTION":15.69728876,"ECCENTRICITY":9.65e-5,"INCLINATION":53.1592,"RA_OF_ASC_NODE":136.4606,"ARG_OF_PERICENTER":93.3981,"MEAN_ANOMALY":266.7147,"EPHEMERIS_TYPE":0,"CLASSIFICATION_TYPE":"U","NORAD_CAT_ID":60723,"ELEMENT_SET_NO":999,"REV_AT_EPOCH":5380,"BSTAR":5.5683e-6,"MEAN_MOTION_DOT":8.7e-7,"MEAN_MOTION_DDOT":0},{"OBJECT_NAME":"STARLINK-11261 [DTC]","OBJECT_ID":"2024-152E","EPOCH":"2025-07-29T02:04:43.748544","MEAN_MOTION":15.69725428,"ECCENTRICITY":0.0001105,"INCLINATION":53.159,"RA_OF_ASC_NODE":138.6897,"ARG_OF_PERICENTER":88.5969,"MEAN_ANOMALY":271.5176,"EPHEMERIS_TYPE":0,"CLASSIFICATION_TYPE":"U","NORAD_CAT_ID":60724,"ELEMENT_SET_NO":999,"REV_AT_EPOCH":5372,"BSTAR":1.7254e-5,"MEAN_MOTION_DOT":1.503e-5,"MEAN_MOTION_DDOT":0},{"OBJECT_NAME":"STARLINK-11263 [DTC]","OBJECT_ID":"2024-152F","EPOCH":"2025-07-29T01:50:36.666528","MEAN_MOTION":15.69713231,"ECCENTRICITY":0.0001221,"INCLINATION":53.1597,"RA_OF_ASC_NODE":138.6265,"ARG_OF_PERICENTER":70.9422,"MEAN_ANOMALY":289.1728,"EPHEMERIS_TYPE":0,"CLASSIFICATION_TYPE":"U","NORAD_CAT_ID":60725,"ELEMENT_SET_NO":999,"REV_AT_EPOCH":5373,"BSTAR":3.4599e-6,"MEAN_MOTION_DOT":-1.7e-6,"MEAN_MOTION_DDOT":0},{"OBJECT_NAME":"STARLINK-11235 [DTC]","OBJECT_ID":"2024-152G","EPOCH":"2025-07-29T01:43:32.767392","MEAN_MOTION":15.69719599,"ECCENTRICITY":9.19e-5,"INCLINATION":53.1575,"RA_OF_ASC_NODE":138.5928,"ARG_OF_PERICENTER":76.6258,"MEAN_ANOMALY":283.4862,"EPHEMERIS_TYPE":0,"CLASSIFICATION_TYPE":"U","NORAD_CAT_ID":60726,"ELEMENT_SET_NO":999,"REV_AT_EPOCH":5384,"BSTAR":-7.8477e-6,"MEAN_MOTION_DOT":-1.539e-5,"MEAN_MOTION_DDOT":0}]
